{
  "type": "FeatureCollection",
  "features": [
    {
      "type": "Feature",
      "properties": { "NAME_1": "Nairobi" },
      "geometry": {
        "type": "Polygon",
        "coordinates": [[[36.8, -1.3], [37.0, -1.3], [37.0, -1.5], [36.8, -1.5], [36.8, -1.3]]]
      }
    },
    {
      "type": "Feature",
      "properties": { "NAME_1": "Kiambu" },
      "geometry": {
        "type": "Polygon",
        "coordinates": [[[36.6, -1.1], [36.9, -1.1], [36.9, -1.3], [36.6, -1.3], [36.6, -1.1]]]
      }
    },
    {
      "type": "Feature",
      "properties": { "NAME_1": "Machakos" },
      "geometry": {
        "type": "Polygon",
        "coordinates": [[[37.0, -1.4], [37.3, -1.4], [37.3, -1.6], [37.0, -1.6], [37.0, -1.4]]]
      }
    }
  ]
}
